ONEWEB-0634             
1 56075U 23043AF  24237.90649339 -.00000100  00000+0 -30073-3 0  9994
2 56075  87.9059  30.8035 0001958 102.1658 257.9692 13.15550246 69454
ONEWEB-0635             
1 56076U 23043AG  24237.90173743 -.00000019  00000+0 -83826-4 0  9990
2 56076  87.9055  30.8574 0001566  80.9944 279.1364 13.15548307 69485
ONEWEB-0636             
1 56077U 23043AH  24237.89381275  .00000065  00000+0  13765-3 0  9993
2 56077  87.9056  30.8290 0001584  82.0999 278.0311 13.15548847 69462
ONEWEB-0637             
1 56078U 23043AJ  24237.88747279  .00000096  00000+0  22019-3 0  9999
2 56078  87.9057  30.8077 0001668  80.7163 279.4155 13.15548850 69485
ONEWEB-0647             
1 56079U 23043AK  24237.88270557  .00000126  00000+0  29967-3 0  9993
2 56079  87.9055  30.8254 0001436  90.5624 269.5670 13.15550944 69473
ONEWEB-0651             
1 56080U 23043AL  24237.87795956  .00000099  00000+0  22947-3 0  9999
2 56080  87.9057  30.8052 0001774  82.0891 278.0440 13.15549606 70677
ONEWEB-0718             
1 56081U 23043AM  24237.94927407 -.00000210  00000+0 -59178-3 0  9999
2 56081  87.9056  30.7767 0002162 103.9973 256.1398 13.15549628 69496
ONEWEB-0561             
1 56710U 23068A   24237.91674515 -.00000006  00000+0 -45871-4 0  9990
2 56710  87.9210  46.0170 0001448  69.2135 290.9154 13.20773106 62210
